NORAD_CAT_ID,OBJECT_NAME,OBJECT_TYPE,EPOCH,MEAN_MOTION,ECCENTRICITY,INCLINATION,RA_OF_ASC_NODE,ARG_OF_PERICENTER,MEAN_ANOMALY,BSTAR,MEAN_MOTION_DOT,MEAN_MOTION_DDOT,TLE_LINE0,TLE_LINE1,TLE_LINE2,SEMIMAJOR_AXIS,PERIOD,APOGEE,PERIGEE,DECAYED
52345.0,STARLINK-3852,PAYLOAD,2022-08-19 14:00:01,15.08828149,0.0001643,53.2132,266.5417,51.1269,115.0861,-0.00018665,-3.256e-05,0.0,0 STARLINK-3852,1 52345U 22045Q   22231.58334491 -.00003256  00000-0 -18665-3 0  9996,2 52345  53.2132 266.5417 0001643  51.1269 115.0861 15.08828149  1308,6917.917,95.438,540.918,538.645,0.0
52345.0,STARLINK-3852,PAYLOAD,2022-08-19 22:00:00,15.08796921,0.0001457,53.2133,265.0435,56.0006,121.7975,0.0020555,0.00032538,0.0,0 STARLINK-3852,1 52345U 22045Q   22231.91667824  .00032538  00000-0  20555-2 0  9995,2 52345  53.2133 265.0435 0001457  56.0006 121.7975 15.08796921  1301,6918.012,95.44,540.885,538.869,0.0
52345.0,STARLINK-3852,PAYLOAD,2022-08-20 14:00:01,15.08808913,0.0001682,53.2132,262.0524,49.3434,151.5867,0.0020716,0.00032807,0.0,0 STARLINK-3852,1 52345U 22045Q   22232.58334491  .00032807  00000-0  20716-2 0  9998,2 52345  53.2132 262.0524 0001682  49.3434 151.5867 15.08808913  1302,6917.975,95.44,541.004,538.677,0.0
52345.0,STARLINK-3852,PAYLOAD,2022-08-20 16:00:00,15.08835853,0.0001645,53.2132,261.6779,49.9394,243.876,-0.001254,-0.00020188,0.0,0 STARLINK-3852,1 52345U 22045Q   22232.66667824 -.00020188  00000-0 -12540-2 0  9993,2 52345  53.2132 261.6779 0001645  49.9394 243.8760 15.08835853 19959,6917.893,95.438,540.896,538.62,0.0
52345.0,STARLINK-3852,PAYLOAD,2022-08-20 22:00:00,15.08805567,0.0001545,53.2134,260.5542,55.1848,157.3248,0.0023673,0.00037553,0.0,0 STARLINK-3852,1 52345U 22045Q   22232.91667824  .00037553  00000-0  23673-2 0  9992,2 52345  53.2134 260.5542 0001545  55.1848 157.3248 15.08805567  1308,6917.986,95.44,540.919,538.7819999999998,0.0
52345.0,STARLINK-3852,PAYLOAD,2022-08-21 14:00:01,15.08823821,0.0001766,53.2134,257.5631,49.1843,186.4785,0.0013475,0.00021213,0.0,0 STARLINK-3852,1 52345U 22045Q   22233.58334491  .00021213  00000-0  13475-2 0  9992,2 52345  53.2134 257.5631 0001766  49.1843 186.4785 15.08823821 20095,6917.93,95.439,541.0169999999998,538.573,0.0
52345.0,STARLINK-3852,PAYLOAD,2022-08-21 22:00:00,15.08812594,0.0001635,53.2136,256.0649,55.1377,192.1178,0.0025981999999999,0.00041274,0.0,0 STARLINK-3852,1 52345U 22045Q   22233.91667824  .00041274  00000-0  25982-2 0  9993,2 52345  53.2136 256.0649 0001635  55.1377 192.1178 15.08812594  1302,6917.964,95.439,540.96,538.698,0.0
52345.0,STARLINK-3852,PAYLOAD,2022-08-22 12:00:00,15.08815911,0.0001851999999999,53.2137,253.4481,49.2961,128.2435,0.0030627,0.0004876,0.0,0 STARLINK-3852,1 52345U 22045Q   22234.50001157  .00048760  00000-0  30627-2 0  9999,2 52345  53.2137 253.4481 0001852  49.2961 128.2435 15.08815911 20237,6917.954000000002,95.439,541.1,538.538,0.0
52345.0,STARLINK-3852,PAYLOAD,2022-08-22 22:00:00,15.08819503,0.0001692,53.2137,251.5756,55.9548,226.0801,0.0027778,0.00044173,0.0,0 STARLINK-3852,1 52345U 22045Q   22234.91667824  .00044173  00000-0  27778-2 0  9990,2 52345  53.2137 251.5756 0001692  55.9548 226.0801 15.08819503  1300,6917.943,95.439,540.979,538.638,0.0
52345.0,STARLINK-3852,PAYLOAD,2022-08-23 06:00:00,15.08856389,0.0001813,53.2137,250.0804,53.4719,240.1517,-0.0015342,-0.00024633,0.0,0 STARLINK-3852,1 52345U 22045Q   22235.25001157 -.00024633  00000-0 -15342-2 0  9994,2 52345  53.2137 250.0804 0001813  53.4719 240.1517 15.08856389 20345,6917.83,95.437,540.9490000000002,538.441,0.0
52345.0,STARLINK-3852,PAYLOAD,2022-08-23 14:00:01,15.08850577,0.0001855,53.2133,248.5843,49.8062,255.4185,-0.00021198,-3.661e-05,0.0,0 STARLINK-3852,1 52345U 22045Q   22235.58334491 -.00003661  00000-0 -21198-3 0  9995,2 52345  53.2133 248.5843 0001855  49.8062 255.4185 15.08850577  1300,6917.848000000001,95.437,540.996,538.43,0.0
52345.0,STARLINK-3852,PAYLOAD,2022-08-23 22:00:01,15.088244199999998,0.0001708,53.2135,247.0862,57.0644,259.8376,0.0029044,0.00046219,0.0,0 STARLINK-3852,1 52345U 22045Q   22235.91668981  .00046219  00000-0  29044-2 0  9997,2 52345  53.2135 247.0862 0001708  57.0644 259.8376 15.08824420 20445,6917.928000000001,95.439,540.975,538.611,0.0
52345.0,STARLINK-3852,PAYLOAD,2022-08-24 14:00:01,15.08858959,0.0001853,53.213,244.0947,50.4997,289.5411,-0.00079712,-0.00012959,0.0,0 STARLINK-3852,1 52345U 22045Q   22236.58334491 -.00012959  00000-0 -79712-3 0  9991,2 52345  53.2130 244.0947 0001853  50.4997 289.5411 15.08858959  1308,6917.821999999999,95.436,540.969,538.406,0.0
52345.0,STARLINK-3852,PAYLOAD,2022-08-24 16:00:00,15.08867895,0.0001821,53.2131,243.7201,52.6767,20.2648,-0.002209,-0.0003529999999999,0.0,0 STARLINK-3852,1 52345U 22045Q   22236.66667824 -.00035300  00000-0 -22090-2 0  9990,2 52345  53.2131 243.7201 0001821  52.6767  20.2648 15.08867895 20562,6917.795,95.436,540.92,538.4,0.0
52345.0,STARLINK-3852,PAYLOAD,2022-08-24 22:00:00,15.08841606,0.0001663,53.213,242.5968,57.4323,294.2267,8.7101e-05,1.098e-05,0.0,0 STARLINK-3852,1 52345U 22045Q   22236.91667824  .00001098  00000-0  87101-4 0  9999,2 52345  53.2130 242.5968 0001663  57.4323 294.2267 15.08841606  1306,6917.875,95.437,540.891,538.59,0.0
52345.0,STARLINK-3852,PAYLOAD,2022-08-25 14:00:01,15.08835296,0.000178,53.2135,239.6052,49.4974,325.2803,-0.0012242,-0.00019716,0.0,0 STARLINK-3852,1 52345U 22045Q   22237.58334491 -.00019716  00000-0 -12242-2 0  9994,2 52345  53.2135 239.6052 0001780  49.4974 325.2803 15.08835296  1304,6917.895,95.438,540.991,538.528,0.0
52345.0,STARLINK-3852,PAYLOAD,2022-08-25 22:00:00,15.08803686,0.0001649,53.2144,238.1074,57.5039,328.8614,0.0027278,0.00043349,0.0,0 STARLINK-3852,1 52345U 22045Q   22237.91667824  .00043349  00000-0  27278-2 0  9992,2 52345  53.2144 238.1074 0001649  57.5039 328.8614 15.08803686 20755,6917.991,95.44,540.997,538.716,0.0
52345.0,STARLINK-3852,PAYLOAD,2022-08-26 14:00:01,15.08838767,0.0001821999999999,53.214,235.1158,50.9914,358.5802,-0.0014555,-0.00023377,0.0,0 STARLINK-3852,1 52345U 22045Q   22238.58335648 -.00023377  00000-0 -14555-2 0  9997,2 52345  53.2140 235.1158 0001822  50.9914 358.5802 15.08838767 20851,6917.884,95.438,541.01,538.489,0.0
52345.0,STARLINK-3852,PAYLOAD,2022-08-26 22:00:00,15.08809537,0.0001725,53.2141,233.618,58.4469,2.6509,0.0024831,0.00039419,0.0,0 STARLINK-3852,1 52345U 22045Q   22238.91667824  .00039419  00000-0  24831-2 0  9998,2 52345  53.2141 233.6180 0001725  58.4469   2.6509 15.08809537  1303,6917.974,95.439,541.0319999999998,538.645,0.0
52345.0,STARLINK-3852,PAYLOAD,2022-08-27 14:00:01,15.08846232,0.0001899999999999,53.2141,230.6264,51.941,32.3124,-0.001583,-0.00025398,0.0,0 STARLINK-3852,1 52345U 22045Q   22239.58334491 -.00025398  00000-0 -15830-2 0  9995,2 52345  53.2141 230.6264 0001900  51.9410  32.3124 15.08846232  1308,6917.861,95.437,541.0409999999998,538.4119999999998,0.0
52345.0,STARLINK-3852,PAYLOAD,2022-08-27 22:00:00,15.08820625,0.0001829,53.2143,229.1285,58.7273,37.1215,0.0022395,0.00035515,0.0,0 STARLINK-3852,1 52345U 22045Q   22239.91667824  .00035515  00000-0  22395-2 0  9995,2 52345  53.2143 229.1285 0001829  58.7273  37.1215 15.08820625 21054,6917.94,95.439,541.07,538.539,0.0
52345.0,STARLINK-3852,PAYLOAD,2022-08-28 14:00:01,15.08857555,0.0001988,53.2146,226.1368,52.8322,66.1945,-0.0016774,-0.00026898,0.0,0 STARLINK-3852,1 52345U 22045Q   22240.58334491 -.00026898  00000-0 -16774-2 0  9991,2 52345  53.2146 226.1368 0001988  52.8322  66.1945 15.08857555  1302,6917.8269999999975,95.436,541.067,538.316,0.0
52345.0,STARLINK-3852,PAYLOAD,2022-08-28 22:00:00,15.08835457,0.0001936,53.215,224.639,59.2399,71.3929,0.0019484,0.00030853,0.0,0 STARLINK-3852,1 52345U 22045Q   22240.91667824  .00030853  00000-0  19484-2 0  9992,2 52345  53.2150 224.6390 0001936  59.2399  71.3929 15.08835457  1300,6917.894,95.438,541.099,538.42,0.0
52345.0,STARLINK-3852,PAYLOAD,2022-08-29 06:00:02,15.08850165,0.0002108,53.2152,223.1443,54.4451,87.8539,-0.00050516,-8.321e-05,0.0,0 STARLINK-3852,1 52345U 22045Q   22241.25002315 -.00008321  00000-0 -50516-3 0  9997,2 52345  53.2152 223.1443 0002108  54.4451  87.8539 15.08850165 21251,6917.849,95.437,541.173,538.256,0.0
52345.0,STARLINK-3852,PAYLOAD,2022-08-29 14:00:01,15.08870353,0.0002078,53.2154,221.6473,54.3008,99.5366,-0.0017864,-0.00028631,0.0,0 STARLINK-3852,1 52345U 22045Q   22241.58334491 -.00028631  00000-0 -17864-2 0  9990,2 52345  53.2154 221.6473 0002078  54.3008  99.5366 15.08870353  1305,6917.788000000001,95.436,541.09,538.215,0.0
52345.0,STARLINK-3852,PAYLOAD,2022-08-29 22:00:00,15.08850689,0.0002018,53.2159,220.1497,59.996,105.4586,0.0017273,0.00027317,0.0,0 STARLINK-3852,1 52345U 22045Q   22241.91667824  .00027317  00000-0  17273-2 0  9998,2 52345  53.2159 220.1497 0002018  59.9960 105.4586 15.08850689 21350,6917.848000000001,95.437,541.109,538.317,0.0
52345.0,STARLINK-3852,PAYLOAD,2022-08-30 14:00:01,15.08853947,0.0002032999999999,53.216,217.1579,53.8865,134.7975,-0.0020256,-0.00032394,0.0,0 STARLINK-3852,1 52345U 22045Q   22242.58334491 -.00032394  00000-0 -20256-2 0  9991,2 52345  53.2160 217.1579 0002033  53.8865 134.7975 15.08853947  1303,6917.8380000000025,95.437,541.109,538.2959999999998,0.0
52345.0,STARLINK-3852,PAYLOAD,2022-08-30 22:00:00,15.08840974,0.0001953,53.2165,215.6606,59.6488,140.6338,0.00094776,0.00014828,0.0,0 STARLINK-3852,1 52345U 22045Q   22242.91667824  .00014828  00000-0  94776-3 0  9996,2 52345  53.2165 215.6606 0001953  59.6488 140.6338 15.08840974  1302,6917.877,95.437,541.0930000000002,538.391,0.0
52345.0,STARLINK-3852,PAYLOAD,2022-08-31 14:00:01,15.08840521,0.0001939,53.2163,212.6687,53.669,169.7971,-0.0020927,-0.0003344,0.0,0 STARLINK-3852,1 52345U 22045Q   22243.58334491 -.00033440  00000-0 -20927-2 0  9990,2 52345  53.2163 212.6687 0001939  53.6690 169.7971 15.08840521  1302,6917.879,95.438,541.085,538.4019999999998,0.0
